STARLINK-31052          
1 58600U 23200M   26068.34764651  .00004470  00000+0  17619-3 0  9995
2 58600  43.0019 170.3452 0001587 237.1277 122.9422 15.26746351123569
FLOCK 4G-7              
1 62624U 25009R   26068.79996108  .00011422  00000+0  43168-3 0  9991
2 62624  97.3984 150.8270 0001396 336.9783  23.1393 15.27141471 63725
